NORAD_CAT_ID,OBJECT_NAME,OBJECT_TYPE,EPOCH,MEAN_MOTION,ECCENTRICITY,INCLINATION,RA_OF_ASC_NODE,ARG_OF_PERICENTER,MEAN_ANOMALY,BSTAR,MEAN_MOTION_DOT,MEAN_MOTION_DDOT,TLE_LINE0,TLE_LINE1,TLE_LINE2,SEMIMAJOR_AXIS,PERIOD,APOGEE,PERIGEE,DECAYED
53550.0,STARLINK-4518,PAYLOAD,2022-08-24 14:00:01,15.89941865,0.003922,53.2174,131.3979,56.0856,42.5052,-0.0039366,-0.01288569,0.00047552,0 STARLINK-4518,1 53550U 22101Z   22236.58334491 -.01288569  47552-3 -39366-2 0  9992,2 53550  53.2174 131.3979 0039220  56.0856  42.5052 15.89941865   779,6680.583000000001,90.569,328.649,276.246,0.0
53550.0,STARLINK-4518,PAYLOAD,2022-08-25 04:00:00,15.88448176,0.0033033999999999,53.2173,128.4449,57.5415,140.3063,-0.0045141,-0.01340122,0.00050366,0 STARLINK-4518,1 53550U 22101Z   22237.16667824 -.01340122  50366-3 -45141-2 0  9995,2 53550  53.2173 128.4449 0033034  57.5415 140.3063 15.88448176   866,6684.77,90.655,328.718,284.553,0.0
53550.0,STARLINK-4518,PAYLOAD,2022-08-25 12:00:00,15.87592947,0.0029281,53.2175,126.7567,57.7767,246.7873,-0.0048593,-0.0136717,0.00051825,0 STARLINK-4518,1 53550U 22101Z   22237.50001157 -.01367170  51825-3 -48593-2 0  9991,2 53550  53.2175 126.7567 0029281  57.7767 246.7873 15.87592947   912,6687.170999999999,90.703,328.616,289.455,0.0
53550.0,STARLINK-4518,PAYLOAD,2022-08-25 14:00:01,15.87342087,0.0028515999999999,53.2174,126.3349,57.3451,3.7483,-0.004679,-0.0129827,0.00047055,0 STARLINK-4518,1 53550U 22101Z   22237.58334491 -.01298270  47055-3 -46790-2 0  9990,2 53550  53.2174 126.3349 0028516  57.3451   3.7483 15.87342087  1301,6687.875,90.718,328.811,290.6690000000001,0.0
53550.0,STARLINK-4518,PAYLOAD,2022-08-25 18:00:00,15.86928263,0.0026279,53.2175,125.4937,57.7259,236.199,-0.0049738,-0.0134429,0.0004995,0 STARLINK-4518,1 53550U 22101Z   22237.75001157 -.01344290  49950-3 -49738-2 0  9994,2 53550  53.2175 125.4937 0026279  57.7259 236.1990 15.86928263   959,6689.038000000001,90.741,328.481,293.325,0.0
53550.0,STARLINK-4518,PAYLOAD,2022-08-25 22:00:00,15.86489288,0.0024741,53.2176,124.6533,56.7407,109.7613,-0.0050395,-0.01328502,0.00048691,0 STARLINK-4518,1 53550U 22101Z   22237.91667824 -.01328502  48691-3 -50395-2 0  9991,2 53550  53.2176 124.6533 0024741  56.7407 109.7613 15.86489288  1305,6690.272,90.766,328.689,295.584,0.0
53550.0,STARLINK-4518,PAYLOAD,2022-08-26 12:00:00,15.84993081,0.0019100999999999,53.2174,121.7115,57.5866,200.8748,-0.0056733999999999,-0.01212051,0.0,0 STARLINK-4518,1 53550U 22101Z   22238.50001157 -.01212051  00000-0 -56734-2 0  9991,2 53550  53.2174 121.7115 0019101  57.5866 200.8748 15.84993081  1074,6694.481,90.852,329.1330000000001,303.559,0.0
53550.0,STARLINK-4518,PAYLOAD,2022-08-26 14:00:01,15.84750841,0.0018192999999999,53.2172,121.2913,56.7528,317.5189,-0.0055369999999999,-0.01172215,0.0,0 STARLINK-4518,1 53550U 22101Z   22238.58335648 -.01172215  00000-0 -55370-2 0  9996,2 53550  53.2172 121.2913 0018193  56.7528 317.5189 15.84750841  1305,6695.163000000001,90.866,329.209,304.848,0.0
53550.0,STARLINK-4518,PAYLOAD,2022-08-26 22:00:00,15.83875162,0.0015071,53.2172,119.6164,55.8892,60.6033,-0.0057159,-0.01155283,0.0,0 STARLINK-4518,1 53550U 22101Z   22238.91667824 -.01155283  00000-0 -57159-2 0  9990,2 53550  53.2172 119.6164 0015071  55.8892  60.6033 15.83875162  1307,6697.630999999999,90.916,329.59,309.402,0.0
53550.0,STARLINK-4518,PAYLOAD,2022-08-27 14:00:01,15.82165164,0.0008799,53.2175,116.2671,52.3094,265.6188,-0.0065021999999999,-0.01217695,0.0,0 STARLINK-4518,1 53550U 22101Z   22239.58334491 -.01217695  00000-0 -65022-2 0  9999,2 53550  53.2175 116.2671 0008799  52.3094 265.6188 15.82165164  1302,6702.456,91.015,330.218,318.423,0.0
53550.0,STARLINK-4518,PAYLOAD,2022-08-27 20:00:01,15.81516996,0.0006172,53.2176,115.0157,44.8885,257.5033,-0.0067373999999999,-0.01220292,0.0,0 STARLINK-4518,1 53550U 22101Z   22239.83334491 -.01220292  00000-0 -67374-2 0  9996,2 53550  53.2176 115.0157 0006172  44.8885 257.5033 15.81516996  1284,6704.2869999999975,91.052,330.29,322.014,0.0
53550.0,STARLINK-4518,PAYLOAD,2022-08-27 22:00:00,15.81275718,0.0005598,53.2176,114.5988,39.5354,17.5554,-0.0065546,-0.01178288,0.0,0 STARLINK-4518,1 53550U 22101Z   22239.91667824 -.01178288  00000-0 -65546-2 0  9990,2 53550  53.2176 114.5988 0005598  39.5354  17.5554 15.81275718  1302,6704.969,91.066,330.587,323.081,0.0
53550.0,STARLINK-4518,PAYLOAD,2022-08-28 14:00:01,15.7955324,0.0002916,53.2172,111.2622,10.2956,241.9764,-0.0072548,-0.01199079,0.0,0 STARLINK-4518,1 53550U 22101Z   22240.58334491 -.01199079  00000-0 -72548-2 0  9997,2 53550  53.2172 111.2622 0002916  10.2956 241.9764 15.79553240  1304,6709.843000000003,91.165,333.664,329.751,0.0
53550.0,STARLINK-4518,PAYLOAD,2022-08-28 20:00:01,15.78897885,0.0002961,53.2174,110.0157,9.4964,224.8951,-0.0074271,-0.01192104,0.0,0 STARLINK-4518,1 53550U 22101Z   22240.83334491 -.01192104  00000-0 -74271-2 0  9992,2 53550  53.2174 110.0157 0002961   9.4964 224.8951 15.78897885  1443,6711.699000000001,91.203,335.551,331.577,0.0
53550.0,STARLINK-4518,PAYLOAD,2022-08-28 22:00:00,15.78685448,0.000304,53.2173,109.6003,6.8999,341.3985,-0.0075458,-0.01198694,0.0,0 STARLINK-4518,1 53550U 22101Z   22240.91667824 -.01198694  00000-0 -75458-2 0  9998,2 53550  53.2173 109.6003 0003040   6.8999 341.3985 15.78685448  1301,6712.301,91.215,336.207,332.126,0.0
53550.0,STARLINK-4518,PAYLOAD,2022-08-29 12:00:00,15.77171203,0.0003529,53.2175,106.6917,333.9446,89.8925,-0.0081403999999999,-0.01206771,0.0,0 STARLINK-4518,1 53550U 22101Z   22241.50001157 -.01206771  00000-0 -81404-2 0  9999,2 53550  53.2175 106.6917 0003529 333.9446  89.8925 15.77171203  1550,6716.597,91.303,340.832,336.092,0.0
53550.0,STARLINK-4518,PAYLOAD,2022-08-29 14:00:01,15.76949165,0.0003443999999999,53.2175,106.2765,347.421,189.8052,-0.008152,-0.01197591,0.0,0 STARLINK-4518,1 53550U 22101Z   22241.58334491 -.01197591  00000-0 -81520-2 0  9995,2 53550  53.2175 106.2765 0003444 347.4210 189.8052 15.76949165  1306,6717.227,91.316,341.406,336.779,0.0
53550.0,STARLINK-4518,PAYLOAD,2022-08-29 22:00:00,15.76068848,0.000424,53.2175,104.6211,327.9357,302.1922,-0.0083122,-0.01177157,0.0,0 STARLINK-4518,1 53550U 22101Z   22241.91667824 -.01177157  00000-0 -83122-2 0  9997,2 53550  53.2175 104.6211 0004240 327.9357 302.1922 15.76068848  1300,6719.728,91.367,344.4430000000001,338.744,0.0
53550.0,STARLINK-4518,PAYLOAD,2022-08-30 06:00:00,15.75210732,0.0001152,53.2172,102.9649,7.6286,354.3516,-0.0087633,-0.01190961,0.0,0 STARLINK-4518,1 53550U 22101Z   22242.25001157 -.01190961  00000-0 -87633-2 0  9995,2 53550  53.2172 102.9649 0001152   7.6286 354.3516 15.75210732  1662,6722.169,91.416,344.80800000000005,343.259,0.0
53550.0,STARLINK-4518,PAYLOAD,2022-08-30 14:00:01,15.74261252,0.0001416,53.2174,101.31,42.9266,49.8834,-0.0075577,-0.0100477,0.0,0 STARLINK-4518,1 53550U 22101Z   22242.58334491 -.01004770  00000-0 -75577-2 0  9997,2 53550  53.2174 101.3100 0001416  42.9266  49.8834 15.74261252  1304,6724.871,91.471,347.68800000000016,345.784,0.0
53550.0,STARLINK-4518,PAYLOAD,2022-08-30 20:00:01,15.73569385,0.0001501,53.2174,100.0732,43.9474,26.2825,-0.0035733,-0.00482041,0.0,0 STARLINK-4518,1 53550U 22101Z   22242.83334491 -.00482041  00000-0 -35733-2 0  9995,2 53550  53.2174 100.0732 0001501  43.9474  26.2825 15.73569385  1764,6726.842,91.512,349.717,347.6980000000001,0.0
53550.0,STARLINK-4518,PAYLOAD,2022-08-30 22:00:00,15.73431387,0.0001198,53.2171,99.6619,65.07600000000001,117.4697,-0.0022081999999999,-0.00302626,0.0,0 STARLINK-4518,1 53550U 22101Z   22242.91667824 -.00302626  00000-0 -22082-2 0  9996,2 53550  53.2171  99.6619 0001198  65.0760 117.4697 15.73431387  1303,6727.236,91.52,349.906,348.295,0.0
53550.0,STARLINK-4518,PAYLOAD,2022-08-31 12:00:00,15.73152742,7.159999999999999e-05,53.2156,96.7759,51.3856,196.7632,0.00057919,0.00081289,0.0,0 STARLINK-4518,1 53550U 22101Z   22243.50001157  .00081289  00000-0  57919-3 0  9998,2 53550  53.2156  96.7759 0000716  51.3856 196.7632 15.73152742  1863,6728.03,91.536,350.37699999999984,349.413,0.0
53550.0,STARLINK-4518,PAYLOAD,2022-08-31 14:00:01,15.73176148,7.56e-05,53.2158,96.3637,54.26600000000001,306.1,0.00041027,0.00057293,0.0,0 STARLINK-4518,1 53550U 22101Z   22243.58334491  .00057293  00000-0  41027-3 0  9997,2 53550  53.2158  96.3637 0000756  54.2660 306.1000 15.73176148  1317,6727.9630000000025,91.535,350.337,349.32,0.0
53550.0,STARLINK-4518,PAYLOAD,2022-08-31 22:00:00,15.73203262,9.34e-05,53.2155,94.7163,41.1853,48.1062,0.00024612,0.00034066,0.0,0 STARLINK-4518,1 53550U 22101Z   22243.91667824  .00034066  00000-0  24612-3 0  9997,2 53550  53.2155  94.7163 0000934  41.1853  48.1062 15.73203262  1305,6727.886,91.533,350.379,349.122,0.0
53550.0,STARLINK-4518,PAYLOAD,2022-09-01 04:00:01,15.73237479,9.14e-05,53.215,93.4785,37.9095,28.1575,0.00011531,0.00015619,0.0,0 STARLINK-4518,1 53550U 22101Z   22244.16668981  .00015619  00000-0  11531-3 0  9999,2 53550  53.2150  93.4785 0000914  37.9095  28.1575 15.73237479  1972,6727.788000000001,91.531,350.26800000000014,349.038,0.0
53550.0,STARLINK-4518,PAYLOAD,2022-09-01 14:00:01,15.73276653,8.120000000000001e-05,53.2156,91.4148,58.7043,208.5929,-0.00037915,-0.00053664,0.0,0 STARLINK-4518,1 53550U 22101Z   22244.58335648 -.00053664  00000-0 -37915-3 0  9994,2 53550  53.2156  91.4148 0000812  58.7043 208.5929 15.73276653  1301,6727.677,91.529,350.088,348.995,0.0
53550.0,STARLINK-4518,PAYLOAD,2022-09-01 22:00:00,15.73217174,0.0001114,53.2159,89.7673,49.7884,306.4437,0.0003016,0.0004195,0.0,0 STARLINK-4518,1 53550U 22101Z   22244.91667824  .00041950  00000-0  30160-3 0  9993,2 53550  53.2159  89.7673 0001114  49.7884 306.4437 15.73217174  1301,6727.846,91.532,350.461,348.962,0.0
53550.0,STARLINK-4518,PAYLOAD,2022-09-02 04:00:00,15.73284907,0.0001114,53.2158,88.5296,46.224,286.7215,-0.00059727,-0.00083913,0.0,0 STARLINK-4518,1 53550U 22101Z   22245.16667824 -.00083913  00000-0 -59727-3 0  9998,2 53550  53.2158  88.5296 0001114  46.2240 286.7215 15.73284907  2129,6727.653,91.528,350.26800000000014,348.769,0.0
